OBJECT_NAME,OBJECT_ID,EPOCH,MEAN_MOTION,ECCENTRICITY,INCLINATION,RA_OF_ASC_NODE,ARG_OF_PERICENTER,MEAN_ANOMALY,EPHEMERIS_TYPE,CLASSIFICATION_TYPE,NORAD_CAT_ID,ELEMENT_SET_NO,REV_AT_EPOCH,BSTAR,MEAN_MOTION_DOT,MEAN_MOTION_DDOT,OBJECT_TYPE
STARLINK-35648,2025-262AC,2026-03-21T10:22:00.545664,15.27616493,.00013876,42.9986,229.7231,279.3125,80.7570,0,U,66482,999,2054,.1111364E-2,.30481E-3,0,Active
STARLINK-35654,2025-262AD,2026-03-21T10:07:12.572256,15.27620953,.00030963,43.0002,229.6469,280.0963,79.9539,0,U,66483,999,2070,.97865185E-3,.26802E-3,0,Active
STARLINK-35371,2025-262AE,2026-03-21T11:21:13.190976,15.27601563,.00014345,43.0007,230.0341,254.2823,105.7871,0,U,66484,999,2070,.77542657E-3,.21151E-3,0,Active
STARLINK-34774,2025-263A,2026-03-21T06:32:28.958496,15.27602237,.00017957,43.0002,285.0060,272.3467,87.7179,0,U,66485,999,2067,.80234131E-3,.21897E-3,0,Active
STARLINK-34844,2025-263B,2026-03-20T14:49:04.326816,15.27587828,.0001046,42.9996,288.6853,273.2739,86.7993,0,U,66486,999,2052,.43886E-3,.11837E-3,0,Active
STARLINK-34733,2025-263C,2026-03-20T21:02:01.474080,15.27586855,.00012241,42.9999,287.1892,284.2438,75.8278,0,U,66487,999,2061,.60593891E-3,.16453E-3,0,Active
STARLINK-35515,2025-263D,2026-03-21T14:34:21.840672,15.27620272,.00013289,43.0011,283.2080,260.7852,99.2850,0,U,66488,999,2072,.16394222E-2,.45184E-3,0,Active
STARLINK-35696,2025-263E,2026-03-20T23:11:18.327840,15.27618841,.00021812,43.0032,286.9993,253.4996,106.5616,0,U,66489,999,2062,.68096642E-3,.18546E-3,0,Active
STARLINK-35693,2025-263F,2026-03-21T14:26:57.631488,15.27614962,.00018494,43.0012,283.1736,269.7195,90.3444,0,U,66490,999,2072,.10648895E-2,.29189E-3,0,Active
STARLINK-35663,2025-263G,2026-03-21T13:31:39.954432,15.27616016,.00012047,42.9985,283.7414,301.1325,58.9408,0,U,66491,999,2071,.10696325E-2,.29321E-3,0,Active
STARLINK-35673,2025-263H,2026-03-21T14:49:09.784704,15.27609201,.00012606,43.0010,283.2905,248.3579,111.7138,0,U,66492,999,2072,.17193767E-2,.47398E-3,0,Active
STARLINK-35597,2025-263J,2026-03-20T14:17:50.983872,15.27560679,.0002413,42.9997,289.3805,274.4153,85.6423,0,U,66493,999,2056,.51988E-3,.14063E-3,0,Active
STARLINK-35689,2025-263K,2026-03-21T14:01:16.391136,15.27604445,.00001576,42.9941,283.9050,22.6973,337.3886,0,U,66494,999,2071,.11192859E-2,.3069E-3,0,Active
STARLINK-35832,2025-263L,2026-03-21T14:43:36.691104,15.27607913,.00014555,43.0017,283.2579,252.6803,107.3890,0,U,66495,999,2072,.17655677E-2,.48685E-3,0,Active
STARLINK-35909,2025-263M,2026-03-21T13:42:45.799488,15.27628403,.00023878,42.9990,283.7985,282.6146,77.4439,0,U,66496,999,2071,.14530028E-2,.39999E-3,0,Active
STARLINK-35899,2025-263N,2026-03-21T06:38:02.192928,15.27589767,.00004021,43.0043,285.0221,293.1739,66.9071,0,U,66497,999,2067,.61527488E-3,.16712E-3,0,Active
STARLINK-35907,2025-263P,2026-03-21T15:15:04.247712,15.27613790,.00014963,42.9995,283.4286,267.5938,92.4742,0,U,66498,999,2072,.11501115E-2,.31555E-3,0,Active
STARLINK-35816,2025-263Q,2026-03-20T22:14:10.419936,15.27572733,.00017081,42.9989,287.5652,270.2377,89.8279,0,U,66499,999,2061,.91732665E-3,.25061E-3,0,Active
STARLINK-35894,2025-263R,2026-03-21T14:50:19.178592,15.27606377,.00007539,43.0015,286.7599,271.0196,89.0569,0,U,66500,999,2068,.11574462E-2,.31751E-3,0,Active
STARLINK-35897,2025-263S,2026-03-21T14:58:25.690944,15.27628695,.00016108,42.9999,283.3395,280.5394,79.5276,0,U,66501,999,2072,.10259824E-2,.28121E-3,0,Active
STARLINK-35922,2025-263T,2026-03-21T13:52:00.174720,15.27613210,.00016514,43.0002,283.8471,244.4333,115.6348,0,U,66502,999,2071,.16777807E-2,.46244E-3,0,Active
STARLINK-35917,2025-263U,2026-03-21T13:35:21.989472,15.27578933,.00013312,42.9990,283.7603,262.1071,97.9630,0,U,66503,999,2071,.13648392E-2,.37485E-3,0,Active
STARLINK-35916,2025-263V,2026-03-21T13:40:13.828800,15.27626195,.00011834,42.9998,287.2783,217.5885,142.4884,0,U,66504,999,2067,.10952247E-2,.30041E-3,0,Active
STARLINK-34766,2025-263W,2026-03-21T14:12:09.530208,15.27605177,.00013913,42.9979,283.0909,270.1466,89.9226,0,U,66505,999,2072,.11673032E-2,.32024E-3,0,Active
STARLINK-34765,2025-263X,2026-03-21T14:54:42.794496,15.27614016,.0001292,43.0013,283.3113,221.7965,138.2788,0,U,66506,999,2072,.11986791E-2,.32904E-3,0,Active
STARLINK-34767,2025-263Y,2026-03-21T13:46:27.932160,15.27619489,.00013852,42.9991,283.8217,269.5391,90.5302,0,U,66507,999,2071,.8837127E-3,.24165E-3,0,Active
STARLINK-35608,2025-263Z,2026-03-21T13:29:48.702336,15.27624945,.00017992,42.9989,283.7342,294.4701,65.5963,0,U,66508,999,2071,.13032014E-2,.35823E-3,0,Active
STARLINK-35598,2025-263AA,2026-03-21T14:03:07.281216,15.27612462,.00007597,42.9980,283.9073,281.9413,78.1354,0,U,66509,999,2071,.10325983E-2,.2829E-3,0,Active
STARLINK-35600,2025-263AB,2026-03-21T13:57:35.501760,15.27621959,.00013013,42.9993,283.8780,266.2895,93.7808,0,U,66510,999,2071,.91237459E-3,.24962E-3,0,Active
